{
  "norad_id": 60391,
  "name": "QIANFAN-13",
  "history": [
    {
      "epoch": "2026-04-10T05:15:30.834432Z",
      "apogee_km": 1077.2876130554223,
      "perigee_km": 1059.8419269507658,
      "latitude_deg": 3.733221905040453e-05,
      "longitude_deg": 9.795831861877042,
      "height_km": 1078.2266130962385,
      "semi_major_axis_km": 7446.701770003094,
      "eccentricity": 0.00117137,
      "inclination_deg": 88.9674,
      "raan_deg": 287.1304,
      "arg_perigee_deg": 219.813,
      "mean_anomaly_deg": 140.2163,
      "mean_motion_rev_day": 13.51004576
    },
    {
      "epoch": "2026-04-11T20:21:49.972320Z",
      "apogee_km": 1077.3917996398668,
      "perigee_km": 1059.737159771781,
      "latitude_deg": -4.05158040113266e-05,
      "longitude_deg": 141.44008781777387,
      "height_km": 1078.789700050059,
      "semi_major_axis_km": 7446.701479705824,
      "eccentricity": 0.0011854,
      "inclination_deg": 88.9674,
      "raan_deg": 286.9604,
      "arg_perigee_deg": 214.6245,
      "mean_anomaly_deg": 145.4135,
      "mean_motion_rev_day": 13.51004655
    },
    {
      "epoch": "2026-04-13T06:08:11.946048Z",
      "apogee_km": 1077.4886791838026,
      "perigee_km": 1059.6393836136012,
      "latitude_deg": -8.745520106243228e-06,
      "longitude_deg": -6.6852678064244015,
      "height_km": 1079.240440246535,
      "semi_major_axis_km": 7446.701031398701,
      "eccentricity": 0.00119847,
      "inclination_deg": 88.9674,
      "raan_deg": 286.8136,
      "arg_perigee_deg": 210.1734,
      "mean_anomaly_deg": 149.8728,
      "mean_motion_rev_day": 13.51004777
    },
    {
      "epoch": "2026-04-14T19:27:52.020864Z",
      "apogee_km": 1077.5986428344759,
      "perigee_km": 1059.5284792530474,
      "latitude_deg": 3.757434531316479e-05,
      "longitude_deg": 151.70245807221286,
      "height_km": 1079.6903506360036,
      "semi_major_axis_km": 7446.700561043761,
      "eccentricity": 0.0012133,
      "inclination_deg": 88.9673,
      "raan_deg": 286.6513,
      "arg_perigee_deg": 205.3324,
      "mean_anomaly_deg": 154.7234,
      "mean_motion_rev_day": 13.51004905
    },
    {
      "epoch": "2026-04-15T18:34:19.691328Z",
      "apogee_km": 1077.6625814434465,
      "perigee_km": 1059.464334863811,
      "latitude_deg": -1.8340851263362193e-05,
      "longitude_deg": 164.03766635123833,
      "height_km": 1079.9392459908931,
      "semi_major_axis_km": 7446.7004581536285,
      "eccentricity": 0.0012219,
      "inclination_deg": 88.9674,
      "raan_deg": 286.5508,
      "arg_perigee_deg": 202.3491,
      "mean_anomaly_deg": 157.7129,
      "mean_motion_rev_day": 13.51004933
    },
    {
      "epoch": "2026-04-16T19:27:26.404992Z",
      "apogee_km": 1077.7442780769898,
      "perigee_km": 1059.382204621871,
      "latitude_deg": -1.2540435814177368e-05,
      "longitude_deg": 149.6294960642492,
      "height_km": 1080.1933805777066,
      "semi_major_axis_km": 7446.70024134943,
      "eccentricity": 0.0012329,
      "inclination_deg": 88.9673,
      "raan_deg": 286.4426,
      "arg_perigee_deg": 199.1984,
      "mean_anomaly_deg": 160.8704,
      "mean_motion_rev_day": 13.51004992
    },
    {
      "epoch": "2026-04-17T22:07:12.175680Z",
      "apogee_km": 1077.8277214423806,
      "perigee_km": 1059.2982468058835,
      "latitude_deg": -5.465088145554642e-05,
      "longitude_deg": 108.47788677545721,
      "height_km": 1080.4348006927498,
      "semi_major_axis_km": 7446.699984124131,
      "eccentricity": 0.00124414,
      "inclination_deg": 88.9673,
      "raan_deg": 286.3267,
      "arg_perigee_deg": 195.8457,
      "mean_anomaly_deg": 164.2306,
      "mean_motion_rev_day": 13.51005062
    },
    {
      "epoch": "2026-04-18T19:27:00.790848Z",
      "apogee_km": 1077.8995792998876,
      "perigee_km": 1059.2262346132038,
      "latitude_deg": 5.718024564330427e-06,
      "longitude_deg": 147.55652575122437,
      "height_km": 1080.6116793764627,
      "semi_major_axis_km": 7446.699906956545,
      "eccentricity": 0.0012538,
      "inclination_deg": 88.9674,
      "raan_deg": 286.2339,
      "arg_perigee_deg": 193.1954,
      "mean_anomaly_deg": 166.8871,
      "mean_motion_rev_day": 13.51005083
    }
  ]
}